NAVSTAR 43 (USA 132)    
1 24876U 97035A   26060.00984234  .00000020  00000+0  00000+0 0  9995
2 24876  55.9334 102.8040 0097856  56.2915 304.7159  2.00563922209780
NAVSTAR 48 (USA 151)    
1 26407U 00040A   26059.84130443  .00000009  00000+0  00000+0 0  9999
2 26407  54.8763 219.4631 0122784 302.5190 229.8849  2.00568803187778
NAVSTAR 51 (USA 166)    
1 27663U 03005A   26060.42736949  .00000002  00000+0  00000+0 0  9990
2 27663  54.9080 219.2478 0148736  52.6971 318.8246  2.00566372169159
NAVSTAR 54 (USA 177)    
1 28190U 04009A   26060.37363995  .00000005  00000+0  00000+0 0  9995
2 28190  54.9186 280.0421 0110828 168.9880 319.7388  2.00558119160784
NAVSTAR 56 (USA 180)    
1 28474U 04045A   26060.35727227 -.00000088  00000+0  00000+0 0  9992
2 28474  55.1965 329.2420 0170887 312.7031 227.4565  2.00573160156263
NAVSTAR 57 (USA 183)    
1 28874U 05038A   26060.35549066  .00000009  00000+0  00000+0 0  9994
2 28874  54.9654 277.5282 0128882 295.2964 203.9501  2.00573138149679
INMARSAT 4-F2           
1 28899U 05044A   26060.49731110 -.00000276  00000+0  00000+0 0  9993
2 28899   4.9537  43.8026 0002503 312.2837 125.7294  1.00272452 74447
NAVSTAR 58 (USA 190)    
1 29486U 06042A   26060.32185889 -.00000026  00000+0  00000+0 0  9996
2 29486  54.6984 155.6224 0106807  52.8668 319.0585  2.00575456142236
NAVSTAR 59 (USA 192)    
1 29601U 06052A   26059.72354957  .00000010  00000+0  00000+0 0  9994
2 29601  54.9584 218.3028 0087934  89.3093 271.6592  2.00551333141237
NAVSTAR 60 (USA 196)    
1 32260U 07047A   26060.03053530  .00000012  00000+0  00000+0 0  9995
2 32260  54.0129  84.5227 0163578  85.9294 276.0062  2.00560826134641
COSMOS 2433 [GLONASS-M] 
1 32275U 07052A   26059.98637234 -.00000049  00000+0  00000+0 0  9999
2 32275  65.6370 319.5772 0002353 271.3066  88.7182  2.13103887142756
COSMOS 2432 [GLONASS-M] 
1 32276U 07052B   26060.22440509 -.00000050  00000+0  00000+0 0  9998
2 32276  65.6527 319.6949 0010691 329.4974 157.3757  2.13103055142786
NAVSTAR 61 (USA 199)    
1 32384U 07062A   26060.09338891  .00000011  00000+0  00000+0 0  9990
2 32384  55.1174 278.4968 0032837 160.6293  12.9281  2.00553256133344
COSMOS 2434 [GLONASS-M] 
1 32393U 07065A   26059.66737977 -.00000009  00000+0  00000+0 0  9990
2 32393  64.3188 195.5729 0003951  70.7248 294.9025  2.13101172141461
COSMOS 2436 [GLONASS-M] 
1 32395U 07065C   26060.44697113 -.00000013  00000+0  00000+0 0  9992
2 32395  64.3273 195.6177 0017547   7.6529   8.7984  2.13099991141430
NAVSTAR 62 (USA 201)    
1 32711U 08012A   26059.45034167 -.00000031  00000+0  00000+0 0  9990
2 32711  54.4822 154.2701 0206744 246.1169 111.7145  2.00568968131574
NAVSTAR 64 (USA 206)    
1 35752U 09043A   26060.07464518 -.00000069  00000+0  00000+0 0  9991
2 35752  56.1461  31.6985 0051641  80.7088  26.1118  2.00560547121199
COSMOS 2456 [GLONASS-M] 
1 36111U 09070A   26060.36102538  .00000035  00000+0  00000+0 0  9996
2 36111  64.9467  74.6496 0006223 304.7451  30.5541  2.13103410126128
COSMOS 2457 [GLONASS-M] 
1 36112U 09070B   26060.42035186  .00000034  00000+0  00000+0 0  9997
2 36112  64.9320  74.4935 0002228 196.4022 312.8150  2.13100899126135
COSMOS 2460 [GLONASS-M] 
1 36402U 10007C   26060.37150454 -.00000046  00000+0  00000+0 0  9995
2 36402  65.4815 318.1174 0001778  10.4214 102.0361  2.13105990124433
NAVSTAR 65 (USA 213)    
1 36585U 10022A   26059.84518559  .00000000  00000+0  00000+0 0  9997
2 36585  54.2895 212.9243 0127362  65.8580 352.0725  2.00557011115426
BEIDOU-2 IGSO-1         
1 36828U 10036A   26059.80362605 -.00000169  00000+0  00000+0 0  9994
2 36828  54.2920 163.9431 0053920 219.0373 170.2747  1.00252838 57012
BEIDOU-2 G4             
1 37210U 10057A   26060.51151228 -.00000129  00000+0  00000+0 0  9996
2 37210   3.3789  69.5594 0009285 209.6924 224.1944  1.00271933 56215
BEIDOU-2 IGSO-2         
1 37256U 10068A   26058.35181565 -.00000158  00000+0  00000+0 0  9996
2 37256  47.7414 273.1895 0047378 212.9968 264.9944  1.00260216 55694
BEIDOU-2 IGSO-3         
1 37384U 11013A   26058.90884667 -.00000154  00000+0  00000+0 0  9999
2 37384  62.2642  41.1818 0035029 190.8154 358.7681  1.00294022 54567
GSAT-8                  
1 37605U 11022A   26060.45780629  .00000067  00000+0  00000+0 0  9993
2 37605   1.8525  83.1958 0007634 213.0759  82.8325  1.00270929 52134
BEIDOU-2 IGSO-4         
1 37763U 11038A   26059.75739034 -.00000138  00000+0  00000+0 0  9990
2 37763  54.5891 166.6527 0154480 231.0042 128.1008  1.00265982 53569
GSAT0101 (GALILEO-PFM)  
1 37846U 11060A   26053.46432651 -.00000082  00000+0  00000+0 0  9992
2 37846  57.0318 344.8758 0003975 357.0591   2.9533  1.70475478 89166
GSAT0102 (GALILEO-FM2)  
1 37847U 11060B   26053.09802566 -.00000081  00000+0  00000+0 0  9997
2 37847  57.0325 344.8861 0005461 338.0997 202.6314  1.70475770 89162
COSMOS 2476 [GLONASS-M] 
1 37867U 11064A   26060.50858038  .00000037  00000+0  00000+0 0  9992
2 37867  65.2072  76.5060 0025199 241.1119 115.7338  2.13103602111463
COSMOS 2477 [GLONASS-M] 
1 37868U 11064B   26060.43696721  .00000038  00000+0  00000+0 0  9995
2 37868  65.2136  76.5868 0022294 242.6449 239.9292  2.13102701111463
